{
    "links": {
        "self": "http://www.neowsapp.com/rest/v1/neo/3976534?api_key=iIulBulltgU6a56xZRHN4H3l9WmuAYTsLGpBGhQ2"
    },
    "id": "3976534",
    "neo_reference_id": "3976534",
    "name": "(2020 AQ1)",
    "designation": "2020 AQ1",
    "nasa_jpl_url": "http://ssd.jpl.nasa.gov/sbdb.cgi?sstr=3976534",
    "absolute_magnitude_h": 22.1,
    "estimated_diameter": {
        "kilometers": {
            "estimated_diameter_min": 0.1010543415,
            "estimated_diameter_max": 0.2259643771
        },
        "meters": {
            "estimated_diameter_min": 101.054341542,
            "estimated_diameter_max": 225.9643771094
        },
        "miles": {
            "estimated_diameter_min": 0.0627922373,
            "estimated_diameter_max": 0.140407711
        },
        "feet": {
            "estimated_diameter_min": 331.5431259047,
            "estimated_diameter_max": 741.3529669956
        }
    },
    "is_potentially_hazardous_asteroid": false,
    "close_approach_data": [
        {
            "close_approach_date": "1980-01-15",
            "close_approach_date_full": "1980-Jan-15 14:03",
            "epoch_date_close_approach": 316792980000,
            "relative_velocity": {
                "kilometers_per_second": "30.3273878333",
                "kilometers_per_hour": "109178.5961999466",
                "miles_per_hour": "67839.3338443502"
            },
            "miss_distance": {
                "astronomical": "0.125629213",
                "lunar": "48.869763857",
                "kilometers": "18793862.67457631",
                "miles": "11677964.751560678"
            },
            "orbiting_body": "Earth"
        },
        {
            "close_approach_date": "1989-02-16",
            "close_approach_date_full": "1989-Feb-16 09:08",
            "epoch_date_close_approach": 603623280000,
            "relative_velocity": {
                "kilometers_per_second": "30.7220311289",
                "kilometers_per_hour": "110599.3120641055",
                "miles_per_hour": "68722.1114322771"
            },
            "miss_distance": {
                "astronomical": "0.0366271047",
                "lunar": "14.2479437283",
                "kilometers": "5479336.847386989",
                "miles": "3404702.0388348882"
            },
            "orbiting_body": "Venus"
        },
        {
            "close_approach_date": "2018-01-11",
            "close_approach_date_full": "2018-Jan-11 11:50",
            "epoch_date_close_approach": 1515671400000,
            "relative_velocity": {
                "kilometers_per_second": "27.5719936873",
                "kilometers_per_hour": "99259.1772741216",
                "miles_per_hour": "61675.7926790229"
            },
            "miss_distance": {
                "astronomical": "0.0738517365",
                "lunar": "28.7283254985",
                "kilometers": "11048062.476201255",
                "miles": "6864947.690857119"
            },
            "orbiting_body": "Venus"
        },
        {
            "close_approach_date": "2020-01-20",
            "close_approach_date_full": "2020-Jan-20 02:45",
            "epoch_date_close_approach": 1579488300000,
            "relative_velocity": {
                "kilometers_per_second": "27.5120655447",
                "kilometers_per_hour": "99043.4359608613",
                "miles_per_hour": "61541.739416903"
            },
            "miss_distance": {
                "astronomical": "0.026830648",
                "lunar": "10.437122072",
                "kilometers": "4013807.79151976",
                "miles": "2494064.510342288"
            },
            "orbiting_body": "Earth"
        },
        {
            "close_approach_date": "2104-08-23",
            "close_approach_date_full": "2104-Aug-23 04:08",
            "epoch_date_close_approach": 4248907680000,
            "relative_velocity": {
                "kilometers_per_second": "33.0077489721",
                "kilometers_per_hour": "118827.8962995553",
                "miles_per_hour": "73835.0336756876"
            },
            "miss_distance": {
                "astronomical": "0.3036070672",
                "lunar": "118.1031491408",
                "kilometers": "45418970.570066864",
                "miles": "28222039.6388721632"
            },
            "orbiting_body": "Earth"
        }
    ],
    "orbital_data": {
        "orbit_id": "9",
        "orbit_determination_date": "2020-09-11 07:46:19",
        "first_observation_date": "2020-01-03",
        "last_observation_date": "2020-01-19",
        "data_arc_in_days": 16,
        "observations_used": 86,
        "orbit_uncertainty": "7",
        "minimum_orbit_intersection": ".0158302",
        "jupiter_tisserand_invariant": "3.764",
        "epoch_osculation": "2459000.5",
        "eccentricity": ".7116851434972276",
        "semi_major_axis": "1.701691917371466",
        "inclination": "28.41853276803066",
        "ascending_node_longitude": "298.6799246901304",
        "orbital_period": "810.8113714948422",
        "perihelion_distance": ".4906230609688818",
        "perihelion_argument": "284.1170965976255",
        "aphelion_distance": "2.912760773774049",
        "perihelion_time": "2458915.747058631051",
        "mean_anomaly": "37.63027994608692",
        "mean_motion": ".4439996929696368",
        "equinox": "J2000",
        "orbit_class": {
            "orbit_class_type": "APO",
            "orbit_class_description": "Near-Earth asteroid orbits which cross the Earth’s orbit similar to that of 1862 Apollo",
            "orbit_class_range": "a (semi-major axis) > 1.0 AU; q (perihelion) < 1.017 AU"
        }
    },
    "is_sentry_object": false
}